LEO 1 (LEO VANTAGE 1)   
1 43113U 18004C   26068.70632107  .00005709  00000+0  39603-3 0  9997
2 43113  99.2469 334.0284 0352942  24.8540 336.9207 14.67184901422891
STARLINK-4020           
1 52703U 22053AZ  26068.47595325 -.00000851  00000+0 -35370-4 0  9998
2 52703  53.2167 135.0920 0001316 101.7378 258.3762 15.08833448210001
